$$SOE
2460154.500000000, A.D. 2023-Jul-29 00:00:00.0000, 1.174634564702316E+08, -2.380056344967648E+08, 1.110311309027664E+07,
2460161.500000000, A.D. 2023-Aug-05 00:00:00.0000, 1.272607865069503E+08, -2.318916169443208E+08, 1.076041742552987E+07,
2460168.500000000, A.D. 2023-Aug-12 00:00:00.0000, 1.367250784230463E+08, -2.251708919690479E+08, 1.038956935581027E+07,
2460175.500000000, A.D. 2023-Aug-19 00:00:00.0000, 1.458270642766225E+08, -2.178536479070724E+08, 9.991198141861826E+06,
2460182.500000000, A.D. 2023-Aug-26 00:00:00.0000, 1.545368981448928E+08, -2.099507313690854E+08, 9.565967772428811E+06,
2460189.500000000, A.D. 2023-Sep-02 00:00:00.0000, 1.628240545625724E+08, -2.014737566022242E+08, 9.114582751311384E+06,
2460196.500000000, A.D. 2023-Sep-09 00:00:00.0000, 1.706572274349825E+08, -1.924352320497231E+08, 8.637794712173596E+06,
2460203.500000000, A.D. 2023-Sep-16 00:00:00.0000, 1.780042299504164E+08, -1.828487064788833E+08, 8.136409950398028E+06,
2460210.500000000, A.D. 2023-Sep-23 00:00:00.0000, 1.848318966062086E+08, -1.727289370978358E+08, 7.611297985390067E+06,
2460217.500000000, A.D. 2023-Sep-30 00:00:00.0000, 1.911059881313379E+08, -1.620920816430674E+08, 7.063401432255447E+06,
2460224.500000000, A.D. 2023-Oct-07 00:00:00.0000, 1.967910986054665E+08, -1.509559186562804E+08, 6.493747525249295E+06,
2460231.500000000, A.D. 2023-Oct-14 00:00:00.0000, 2.018505681614650E+08, -1.393401034796685E+08, 5.903461119895354E+06,
2460238.500000000, A.D. 2023-Oct-21 00:00:00.0000, 2.062464077573816E+08, -1.272664631734339E+08, 5.293779227946818E+06,
2460245.500000000, A.D. 2023-Oct-28 00:00:00.0000, 2.099392390254977E+08, -1.147593335269463E+08, 4.666067646779254E+06,
2460252.500000000, A.D. 2023-Nov-04 00:00:00.0000, 2.128882538850770E+08, -1.018459449781659E+08, 4.021840004405342E+06,
2460259.500000000, A.D. 2023-Nov-11 00:00:00.0000, 2.150512019651907E+08, -8.855686463426845E+07, 3.362779442095272E+06,
2460266.500000000, A.D. 2023-Nov-18 00:00:00.0000, 2.163844163976047E+08, -7.492650145745195E+07, 2.690763205198184E+06,
2460273.500000000, A.D. 2023-Nov-25 00:00:00.0000, 2.168428915307296E+08, -6.099368172767055E+07, 2.007890426007796E+06,
2460280.500000000, A.D. 2023-Dec-02 00:00:00.0000, 2.163804300171737E+08, -4.680230159382002E+07, 1.316513350348232E+06,
2460287.500000000, A.D. 2023-Dec-09 00:00:00.0000, 2.149498816743218E+08, -3.240206248359710E+07, 6.192721755836699E+05,
2460294.500000000, A.D. 2023-Dec-16 00:00:00.0000, 2.125035026778113E+08, -1.784929280257145E+07, -8.086648769159801E+04,
2460301.500000000, A.D. 2023-Dec-23 00:00:00.0000, 2.089934707872013E+08, -3.207854595852357E+06, -7.805677004832923E+05,
2460308.500000000, A.D. 2023-Dec-30 00:00:00.0000, 2.043725988544687E+08, 1.144987318638416E+07, -1.476083162927101E+06,
2460315.500000000, A.D. 2024-Jan-06 00:00:00.0000, 1.985952974094007E+08, 2.604195002406837E+07, -2.163204184849524E+06,
2460322.500000000, A.D. 2024-Jan-13 00:00:00.0000, 1.916188509153143E+08, 4.047579883974366E+07, -2.837214987328885E+06,
2460329.500000000, A.D. 2024-Jan-20 00:00:00.0000, 1.834050777597120E+08, 5.464715859708321E+07, -3.492849185642224E+06,
2460336.500000000, A.D. 2024-Jan-27 00:00:00.0000, 1.739224442239663E+08, 6.843915004737082E+07, -4.124253686273474E+06,
2460343.500000000, A.D. 2024-Feb-03 00:00:00.0000, 1.631486996114725E+08, 8.172157801562504E+07, -4.724966414658185E+06,
2460350.500000000, A.D. 2024-Feb-10 00:00:00.0000, 1.510740817338802E+08, 9.435064297280639E+07, -5.287916597609360E+06,
2460357.500000000, A.D. 2024-Feb-17 00:00:00.0000, 1.377051012072743E+08, 1.061692901417006E+08, -5.805458802370802E+06,
2460364.500000000, A.D. 2024-Feb-24 00:00:00.0000, 1.230688411483167E+08, 1.170084786570169E+08, -6.269454253676645E+06,
2460371.500000000, A.D. 2024-Mar-02 00:00:00.0000, 1.072175975590103E+08, 1.266896920935993E+08, -6.671414351438954E+06,
2460378.500000000, A.D. 2024-Mar-09 00:00:00.0000, 9.023353189941563E+07, 1.350290117248736E+08, -7.002720635958448E+06,
2460385.500000000, A.D. 2024-Mar-16 00:00:00.0000, 7.223282055574006E+07, 1.418430040143802E+08, -7.254931182374410E+06,
2460392.500000000, A.D. 2024-Mar-23 00:00:00.0000, 5.336859601519446E+07, 1.469565010951340E+08, -7.420173966120139E+06,
2460399.500000000, A.D. 2024-Mar-30 00:00:00.0000, 3.383183875509717E+07, 1.502120537270363E+08, -7.491612479614757E+06,
2460406.500000000, A.D. 2024-Apr-06 00:00:00.0000, 1.384938467555148E+07, 1.514804253105854E+08, -7.463949412844002E+06,
2460413.500000000, A.D. 2024-Apr-13 00:00:00.0000, -6.321561160896865E+06, 1.506710548946585E+08, -7.333913487569317E+06,
2460420.500000000, A.D. 2024-Apr-20 00:00:00.0000, -2.640253948014730E+07, 1.477410699365577E+08, -7.100659089468770E+06,
2460427.500000000, A.D. 2024-Apr-27 00:00:00.0000, -4.610603675908789E+07, 1.427013378057675E+08, -6.766007235958777E+06,
2460434.500000000, A.D. 2024-May-04 00:00:00.0000, -6.514951301783728E+07, 1.356183367320154E+08, -6.334474035270795E+06,
2460441.500000000, A.D. 2024-May-11 00:00:00.0000, -8.326949331550880E+07, 1.266112930730628E+08, -5.813067557884566E+06,
2460448.500000000, A.D. 2024-May-18 00:00:00.0000, -1.002338598135557E+08, 1.158449040521911E+08, -5.210877078713425E+06,
2460455.500000000, A.D. 2024-May-25 00:00:00.0000, -1.158508475645291E+08, 1.035187716868290E+08, -4.538516415512867E+06,
2460462.500000000, A.D. 2024-Jun-01 00:00:00.0000, -1.299739529202947E+08, 8.985516304555941E+07, -3.807503846625242E+06,
2460469.500000000, A.D. 2024-Jun-08 00:00:00.0000, -1.425027628281264E+08, 7.508677011250551E+07, -3.029660357117504E+06,
2460476.500000000, A.D. 2024-Jun-15 00:00:00.0000, -1.533803636776328E+08, 5.944582719823933E+07, -2.216589574322484E+06,
2460483.500000000, A.D. 2024-Jun-22 00:00:00.0000, -1.625883520053747E+08, 4.315542554037674E+07, -1.379275592528628E+06,
2460490.500000000, A.D. 2024-Jun-29 00:00:00.0000, -1.701405353825249E+08, 2.642332726626661E+07, -5.278086278605442E+05,
2460497.500000000, A.D. 2024-Jul-06 00:00:00.0000, -1.760762565781465E+08, 9.438160374151362E+06, 3.287709027434229E+05,
2460504.500000000, A.D. 2024-Jul-13 00:00:00.0000, -1.804540197172431E+08, -7.632373560235355E+06, 1.182531133944988E+06,
2460511.500000000, A.D. 2024-Jul-20 00:00:00.0000, -1.833458342182544E+08, -2.464175230321318E+07, 2.026635673568182E+06,
2460518.500000000, A.D. 2024-Jul-27 00:00:00.0000, -1.848324678669564E+08, -4.146381671419577E+07, 2.855282435251176E+06,
2460525.500000000, A.D. 2024-Aug-03 00:00:00.0000, -1.849996401393784E+08, -5.799128868172380E+07, 3.663614145043917E+06,
2460532.500000000, A.D. 2024-Aug-10 00:00:00.0000, -1.839350890795258E+08, -7.413393701225746E+07, 4.447615546528514E+06,
2460539.500000000, A.D. 2024-Aug-17 00:00:00.0000, -1.817263958726926E+08, -8.981661669881855E+07, 5.204007803824034E+06,
2460546.500000000, A.D. 2024-Aug-24 00:00:00.0000, -1.784594352473311E+08, -1.049773315578377E+08, 5.930146845924683E+06,
2460553.500000000, A.D. 2024-Aug-31 00:00:00.0000, -1.742173236551161E+08, -1.195654115663153E+08, 6.623929544011369E+06,
2460560.500000000, A.D. 2024-Sep-07 00:00:00.0000, -1.690797510281439E+08, -1.335398536273150E+08, 7.283709585227095E+06,
2460567.500000000, A.D. 2024-Sep-14 00:00:00.0000, -1.631226003026980E+08, -1.468678449468930E+08, 7.908223647350371E+06,
2460574.500000000, A.D. 2024-Sep-21 00:00:00.0000, -1.564177795551424E+08, -1.595234705267149E+08, 8.496527801220536E+06,
2460581.500000000, A.D. 2024-Sep-28 00:00:00.0000, -1.490332069015439E+08, -1.714865989264510E+08, 9.047943196405061E+06,
2460588.500000000, A.D. 2024-Oct-05 00:00:00.0000, -1.410328982998303E+08, -1.827419312509518E+08, 9.562009769477919E+06,
2460595.500000000, A.D. 2024-Oct-12 00:00:00.0000, -1.324771238386228E+08, -1.932781928084234E+08, 1.003844725654642E+07,
2460602.500000000, A.D. 2024-Oct-19 00:00:00.0000, -1.234226085474199E+08, -2.030874497745944E+08, 1.047712266539799E+07,
2460609.500000000, A.D. 2024-Oct-26 00:00:00.0000, -1.139227591054469E+08, -2.121645345816906E+08, 1.087802322671357E+07,
2460616.500000000, A.D. 2024-Nov-02 00:00:00.0000, -1.040279029193946E+08, -2.205065645741487E+08, 1.124123396157573E+07,
2460623.500000000, A.D. 2024-Nov-09 00:00:00.0000, -9.378553024798852E+07, -2.281125400515526E+08, 1.156691913442175E+07,
2460630.500000000, A.D. 2024-Nov-16 00:00:00.0000, -8.324053312969016E+07, -2.349830096148157E+08, 1.185530697035739E+07,
2460637.500000000, A.D. 2024-Nov-23 00:00:00.0000, -7.243543703844197E+07, -2.411197924581403E+08, 1.210667710350937E+07,
2460644.500000000, A.D. 2024-Nov-30 00:00:00.0000, -6.141062260424053E+07, -2.465257487815957E+08, 1.232135029006533E+07,
2460651.500000000, A.D. 2024-Dec-07 00:00:00.0000, -5.020453564915850E+07, -2.512045904146510E+08, 1.249968000987424E+07,
2460658.500000000, A.D. 2024-Dec-14 00:00:00.0000, -3.885388569175633E+07, -2.551607241423057E+08, 1.264204581022011E+07,
2460665.500000000, A.D. 2024-Dec-21 00:00:00.0000, -2.739383524997370E+07, -2.583991237272672E+08, 1.274884824626173E+07,
2460672.500000000, A.D. 2024-Dec-28 00:00:00.0000, -1.585817834864564E+07, -2.609252292423389E+08, 1.282050478300223E+07,
2460679.500000000, A.D. 2025-Jan-04 00:00:00.0000, -4.279506255800519E+06, -2.627448677520347E+08, 1.285744644255754E+07,
2460686.500000000, A.D. 2025-Jan-11 00:00:00.0000, 7.310636958194176E+06, -2.638641907450392E+08, 1.286011536016510E+07,
2460693.500000000, A.D. 2025-Jan-18 00:00:00.0000, 1.888160726612244E+07, -2.642896268450017E+08, 1.282896314571814E+07,
2460700.500000000, A.D. 2025-Jan-25 00:00:00.0000, 3.040352128406876E+07, -2.640278483533763E+08, 1.276444990063238E+07,
2460707.500000000, A.D. 2025-Feb-01 00:00:00.0000, 4.184712391370636E+07, -2.630857501366278E+08, 1.266704380055490E+07,
2460714.500000000, A.D. 2025-Feb-08 00:00:00.0000, 5.318366219863130E+07, -2.614704396661851E+08, 1.253722118607137E+07,
2460721.500000000, A.D. 2025-Feb-15 00:00:00.0000, 6.438476457317805E+07, -2.591892373678707E+08, 1.237546711733553E+07,
$$EOE